SZ-21 MODULE            
1 66515U 25246C   25338.54804799  .00046665  00000+0  52183-3 0  9997
2 66515  41.4775  65.9946 0005929 213.3987 146.6479 15.61898737  3162
SHENZHOU-22             
1 66645U 25272A   25338.64265035  .00037639  00000+0  47697-3 0  9990
2 66645  41.4682  65.8455 0009974 328.5002  31.5238 15.58669844262790
CZ-2F R/B               
1 66646U 25272B   25330.47076975  .00449059  75676-5  29319-3 0  9998
2 66646  41.4431 114.9009 0121079 133.7676 227.3272 16.01945612   217
SOYUZ-MS 28             
1 66664U 25275A   25338.54339931  .00015910  00000+0  29318-3 0  9998
2 66664  51.6299 183.0583 0003595 202.7086 157.3744 15.49306035  1173
